ONEWEB-0685             
1 54679U 22166AP  26022.45200885 -.00000063  00000+0 -18497-3 0  9994
2 54679  87.9214 273.0609 0001911  78.2778 281.8571 13.21838247152168
ONEWEB-0712             
1 54680U 22166AQ  26022.14584199 -.00000022  00000+0 -90857-4 0  9991
2 54680  87.9027 257.8476 0001336  60.5857 299.5407 13.16592229152847
ONEWEB-0714             
1 54681U 22166AR  26022.38272691 -.00000041  00000+0 -13021-3 0  9997
2 54681  87.9214 273.0693 0001698  71.1693 288.9625 13.21828226152270
ONEWEB-0532             
1 55140U 23004A   26022.46370310  .00000032  00000+0  48553-4 0  9993
2 55140  87.9093  34.8204 0002208  96.2918 263.8465 13.17651246148396
ONEWEB-0533             
1 55141U 23004B   26022.46323258 -.00000145  00000+0 -43935-3 0  9998
2 55141  87.8939  19.5969 0001897  82.8611 277.2733 13.12442570148948
ONEWEB-0541             
1 55142U 23004C   26022.45546690  .00000363  00000+0  98887-3 0  9991
2 55142  87.8823  50.0566 0001837  98.5436 261.5900 13.11416292146847
ONEWEB-0543             
1 55143U 23004D   26022.48094927  .00000118  00000+0  26685-3 0  9991
2 55143  87.9177   4.4151 0001618  77.9579 282.1734 13.18685773150499
ONEWEB-0544             
1 55144U 23004E   26022.47434300  .00000082  00000+0  17467-3 0  9992
2 55144  87.9184   4.4093 0001581  89.4898 270.6415 13.18687587150497
